     3.02           N: GNSS NAV DATA    G: GPS              RINEX VERSION / TYPE
Assistant 1.0                           20200827 154847 LCL PGM / RUN BY / DATE 
GPSA   0.5588D-08  0.1490D-07 -0.5960D-07 -0.1192D-06       IONOSPHERIC CORR    
GPSB   0.7782D+05  0.3277D+05 -0.6554D+05 -0.2621D+06       IONOSPHERIC CORR    
GPUT -0.9313225746D-09-0.621724894D-14 589824 2120          TIME SYSTEM CORR    
    18                                                      LEAP SECONDS        
                                                            END OF HEADER       
G29 2020 08 27 08 00 00-0.181694049388D-03-0.818545231596D-11 0.000000000000D+00
     0.180000000000D+02 0.231562500000D+02 0.414231540121D-08 0.966958565066D+00
     0.968575477600D-06 0.162858969998D-02 0.312738120556D-05 0.515375876808D+04
     0.374400000000D+06-0.242143869400D-07 0.460176508724D+00 0.372529029846D-07
     0.985529963370D+00 0.330250000000D+03 0.218251652667D+01-0.808783689087D-08
    -0.692886004340D-10 0.100000000000D+01 0.212000000000D+04 0.000000000000D+00
     0.200000000000D+01 0.000000000000D+00-0.102445483208D-07 0.180000000000D+02
     0.373116000000D+06 0.400000000000D+01 0.000000000000D+00 0.000000000000D+00
G15 2020 08 27 07 59 44-0.207816250622D-03 0.261479726760D-11 0.000000000000D+00
     0.360000000000D+02 0.537500000000D+01 0.547987111577D-08-0.382456393473D-01
     0.419095158577D-06 0.126587379491D-01 0.700727105141D-05 0.515373098564D+04
     0.374384000000D+06-0.558793544769D-08-0.285923122902D+01 0.214204192162D-06
     0.928740291064D+00 0.228406250000D+03 0.909420383409D+00-0.860714423639D-08
     0.272154193457D-09 0.100000000000D+01 0.212000000000D+04 0.000000000000D+00
     0.200000000000D+01 0.000000000000D+00-0.107102096081D-07 0.360000000000D+02
     0.372516000000D+06 0.400000000000D+01 0.000000000000D+00 0.000000000000D+00
G05 2020 08 27 08 00 00-0.197370536625D-04-0.795807864051D-12 0.000000000000D+00
     0.910000000000D+02-0.579062500000D+02 0.449304429619D-08 0.157615342893D+01
    -0.298395752907D-05 0.608215574175D-02 0.990368425846D-05 0.515372609329D+04
     0.374400000000D+06-0.745058059692D-07 0.245230002590D+01 0.745058059692D-08
     0.953618228267D+00 0.189031250000D+03 0.855361752405D+00-0.798426114795D-08
     0.258225041824D-09 0.100000000000D+01 0.212000000000D+04 0.000000000000D+00
     0.200000000000D+01 0.000000000000D+00-0.111758708954D-07 0.910000000000D+02
     0.367206000000D+06 0.400000000000D+01 0.000000000000D+00 0.000000000000D+00
G13 2020 08 27 08 00 00 0.395989045501D-04 0.352429196937D-11 0.000000000000D+00
     0.690000000000D+02 0.671875000000D+01 0.457376194412D-08 0.168848000511D+00
     0.281259417534D-06 0.441431393847D-02 0.704079866409D-05 0.515368388367D+04
     0.374400000000D+06-0.372529029846D-07-0.262308496798D+01 0.689178705215D-07
     0.968116669534D+00 0.249218750000D+03 0.104762793779D+01-0.800140471919D-08
     0.114290474943D-09 0.100000000000D+01 0.212000000000D+04 0.000000000000D+00
     0.200000000000D+01 0.000000000000D+00-0.111758708954D-07 0.690000000000D+02
     0.372156000000D+06 0.400000000000D+01 0.000000000000D+00 0.000000000000D+00
G30 2020 08 27 08 00 00-0.290216412395D-03-0.727595761418D-11 0.000000000000D+00
     0.700000000000D+02 0.237187500000D+02 0.513307095587D-08-0.209114154138D+01
     0.920146703720D-06 0.478007725906D-02 0.858120620251D-05 0.515360014343D+04
     0.374400000000D+06 0.931322574615D-07-0.167232819431D+01-0.111758708954D-06
     0.937700469731D+00 0.203937500000D+03-0.280627736010D+01-0.821427072878D-08
    -0.236438420038D-09 0.100000000000D+01 0.212000000000D+04 0.000000000000D+00
     0.200000000000D+01 0.000000000000D+00 0.372529029846D-08 0.700000000000D+02
     0.372516000000D+06 0.400000000000D+01 0.000000000000D+00 0.000000000000D+00
